{"type": "FeatureCollection", "features": [ {"type": "Feature", "properties": {"norad_id": 58662, "name": "TIANMU-1 21", "group": "weather", "lat": -7.101079223498962, "lon": -76.31702848866033, "alt_km": 472.467727340646, "timestamp": "2025-12-17T04:57:44.048082+00:00", "meta": {"OBJECT_NAME": "TIANMU-1 21", "OBJECT_ID": "2023-208C", "EPOCH": "2025-12-16T23:26:37.604832", "MEAN_MOTION": 15.31643062, "ECCENTRICITY": 0.00060276, "INCLINATION": 97.4374, "RA_OF_ASC_NODE": 104.3847, "ARG_OF_PERICENTER": 242.1654, "MEAN_ANOMALY": 117.8977, "EPHEMERIS_TYPE": 0, "CLASSIFICATION_TYPE": "U", "NORAD_CAT_ID": 58662, "ELEMENT_SET_NO": 999, "REV_AT_EPOCH": 10964, "BSTAR": 0.00030275932, "MEAN_MOTION_DOT": 9.178e-05, "MEAN_MOTION_DDOT": 0}, "tle": {"line1": "1 58662U 23208C   25350.97682413  .00009178  00000+0  30276-3 0  9992", "line2": "2 58662  97.4374 104.3847 0006027 242.1654 117.8977 15.31643062109640"}}, "geometry": {"type": "Point", "coordinates": [-76.31702848866033, -7.101079223498962]}}, {"type": "Feature", "properties": {"norad_id": 58663, "name": "TIANMU-1 22", "group": "weather", "lat": 45.25273325429559, "lon": 94.71805403994301, "alt_km": 480.3665498948021, "timestamp": "2025-12-17T04:57:44.048092+00:00", "meta": {"OBJECT_NAME": "TIANMU-1 22", "OBJECT_ID": "2023-208D", "EPOCH": "2025-12-16T22:28:28.303680", "MEAN_MOTION": 15.27676156, "ECCENTRICITY": 0.00026707, "INCLINATION": 97.4383, "RA_OF_ASC_NODE": 102.0224, "ARG_OF_PERICENTER": 264.6457, "MEAN_ANOMALY": 95.4478, "EPHEMERIS_TYPE": 0, "CLASSIFICATION_TYPE": "U", "NORAD_CAT_ID": 58663, "ELEMENT_SET_NO": 999, "REV_AT_EPOCH": 10947, "BSTAR": 0.00026881025, "MEAN_MOTION_DOT": 7.197e-05, "MEAN_MOTION_DDOT": 0}, "tle": {"line1": "1 58663U 23208D   25350.93643870  .00007197  00000+0  26881-3 0  9999", "line2": "2 58663  97.4383 102.0224 0002670 264.6457  95.4478 15.27676156109478"}}, "geometry": {"type": "Point", "coordinates": [94.71805403994301, 45.25273325429559]}}, {"type": "Feature", "properties": {"norad_id": 58700, "name": "TIANMU-1 15", "group": "weather", "lat": 54.76812954951623, "lon": 3.3551118311480117, "alt_km": 490.3660377638753, "timestamp": "2025-12-17T04:57:44.048101+00:00", "meta": {"OBJECT_NAME": "TIANMU-1 15", "OBJECT_ID": "2024-004A", "EPOCH": "2025-12-15T13:02:10.173984", "MEAN_MOTION": 15.24523626, "ECCENTRICITY": 0.00056536, "INCLINATION": 97.4626, "RA_OF_ASC_NODE": 171.0022, "ARG_OF_PERICENTER": 279.9728, "MEAN_ANOMALY": 80.0871, "EPHEMERIS_TYPE": 0, "CLASSIFICATION_TYPE": "U", "NORAD_CAT_ID": 58700, "ELEMENT_SET_NO": 999, "REV_AT_EPOCH": 10777, "BSTAR": 0.00021318175, "MEAN_MOTION_DOT": 5.174e-05, "MEAN_MOTION_DDOT": 0}, "tle": {"line1": "1 58700U 24004A   25349.54317331  .00005174  00000+0  21318-3 0  9994", "line2": "2 58700  97.4626 171.0022 0005653 279.9728  80.0871 15.24523626107774"}}, "geometry": {"type": "Point", "coordinates": [3.3551118311480117, 54.76812954951623]}}, {"type": "Feature", "properties": {"norad_id": 58701, "name": "TIANMU-1 16", "group": "weather", "lat": -25.820427740529603, "lon": -11.589078021081034, "alt_km": 497.0462462478372, "timestamp": "2025-12-17T04:57:44.048110+00:00", "meta": {"OBJECT_NAME": "TIANMU-1 16", "OBJECT_ID": "2024-004B", "EPOCH": "2025-12-16T23:20:06.999072", "MEAN_MOTION": 15.24490821, "ECCENTRICITY": 0.00043512, "INCLINATION": 97.4563, "RA_OF_ASC_NODE": 171.8109, "ARG_OF_PERICENTER": 277.0937, "MEAN_ANOMALY": 82.9806, "EPHEMERIS_TYPE": 0, "CLASSIFICATION_TYPE": "U", "NORAD_CAT_ID": 58701, "ELEMENT_SET_NO": 999, "REV_AT_EPOCH": 10799, "BSTAR": 0.00023089583, "MEAN_MOTION_DOT": 5.604e-05, "MEAN_MOTION_DDOT": 0}, "tle": {"line1": "1 58701U 24004B   25350.97230323  .00005604  00000+0  23090-3 0  9996", "line2": "2 58701  97.4563 171.8109 0004351 277.0937  82.9806 15.24490821107997"}}, "geometry": {"type": "Point", "coordinates": [-11.589078021081034, -25.820427740529603]}}, {"type": "Feature", "properties": {"norad_id": 58702, "name": "TIANMU-1 17", "group": "weather", "lat": -67.62726409699265, "lon": -168.9814472702043, "alt_km": 497.0751607023185, "timestamp": "2025-12-17T04:57:44.048120+00:00", "meta": {"OBJECT_NAME": "TIANMU-1 17", "OBJECT_ID": "2024-004C", "EPOCH": "2025-12-17T00:32:16.484064", "MEAN_MOTION": 15.24535381, "ECCENTRICITY": 0.00035408, "INCLINATION": 97.4597, "RA_OF_ASC_NODE": 172.2731, "ARG_OF_PERICENTER": 279.8173, "MEAN_ANOMALY": 80.2664, "EPHEMERIS_TYPE": 0, "CLASSIFICATION_TYPE": "U", "NORAD_CAT_ID": 58702, "ELEMENT_SET_NO": 999, "REV_AT_EPOCH": 10799, "BSTAR": 0.00022426509, "MEAN_MOTION_DOT": 5.447e-05, "MEAN_MOTION_DDOT": 0}, "tle": {"line1": "1 58702U 24004C   25351.02241301  .00005447  00000+0  22427-3 0  9990", "line2": "2 58702  97.4597 172.2731 0003540 279.8173  80.2664 15.24535381107996"}}, "geometry": {"type": "Point", "coordinates": [-168.9814472702043, -67.62726409699265]}}, {"type": "Feature", "properties": {"norad_id": 58703, "name": "TIANMU-1 18", "group": "weather", "lat": 22.21206037762549, "lon": 169.5852207777137, "alt_km": 492.512436723664, "timestamp": "2025-12-17T04:57:44.048130+00:00", "meta": {"OBJECT_NAME": "TIANMU-1 18", "OBJECT_ID": "2024-004D", "EPOCH": "2025-12-17T00:08:18.254112", "MEAN_MOTION": 15.2452074, "ECCENTRICITY": 0.00028794, "INCLINATION": 97.4614, "RA_OF_ASC_NODE": 172.4528, "ARG_OF_PERICENTER": 279.0331, "MEAN_ANOMALY": 81.058, "EPHEMERIS_TYPE": 0, "CLASSIFICATION_TYPE": "U", "NORAD_CAT_ID": 58703, "ELEMENT_SET_NO": 999, "REV_AT_EPOCH": 10799, "BSTAR": 0.00022805215, "MEAN_MOTION_DOT": 5.538e-05, "MEAN_MOTION_DDOT": 0}, "tle": {"line1": "1 58703U 24004D   25351.00576683  .00005538  00000+0  22805-3 0  9994", "line2": "2 58703  97.4614 172.4528 0002879 279.0331  81.0580 15.24520740107994"}}, "geometry": {"type": "Point", "coordinates": [169.5852207777137, 22.21206037762549]}}, {"type": "Feature", "properties": {"norad_id": 58990, "name": "INSAT-3DS", "group": "weather", "lat": -0.0018188136175458806, "lon": -117.40187763156133, "alt_km": 35781.58973351598, "timestamp": "2025-12-17T04:57:44.048140+00:00", "meta": {"OBJECT_NAME": "INSAT-3DS", "OBJECT_ID": "2024-033A", "EPOCH": "2025-12-16T18:52:59.316960", "MEAN_MOTION": 1.00272629, "ECCENTRICITY": 0.00011288, "INCLINATION": 0.0476, "RA_OF_ASC_NODE": 117.7852, "ARG_OF_PERICENTER": 151.4492, "MEAN_ANOMALY": 181.7799, "EPHEMERIS_TYPE": 0, "CLASSIFICATION_TYPE": "U", "NORAD_CAT_ID": 58990, "ELEMENT_SET_NO": 999, "REV_AT_EPOCH": 4524, "BSTAR": 0, "MEAN_MOTION_DOT": -1.32e-06, "MEAN_MOTION_DDOT": 0}, "tle": {"line1": "1 58990U 24033A   25350.78679765 -.00000132  00000+0  00000+0 0  9998", "line2": "2 58990   0.0476 117.7852 0001128 151.4492 181.7799  1.00272629 45245"}}, "geometry": {"type": "Point", "coordinates": [-117.40187763156133, -0.0018188136175458806]}}, {"type": "Feature", "properties": {"norad_id": 59051, "name": "METEOR-M2 4", "group": "weather", "lat": -1.8996307607862692, "lon": -51.66416307890514, "alt_km": 815.6220387018884, "timestamp": "2025-12-17T04:57:44.048150+00:00", "meta": {"OBJECT_NAME": "METEOR-M2 4", "OBJECT_ID": "2024-039A", "EPOCH": "2025-12-16T23:54:23.452128", "MEAN_MOTION": 14.22402002, "ECCENTRICITY": 0.0006808, "INCLINATION": 98.6771, "RA_OF_ASC_NODE": 307.8383, "ARG_OF_PERICENTER": 346.2272, "MEAN_ANOMALY": 13.8719, "EPHEMERIS_TYPE": 0, "CLASSIFICATION_TYPE": "U", "NORAD_CAT_ID": 59051, "ELEMENT_SET_NO": 999, "REV_AT_EPOCH": 9336, "BSTAR": 2.8314484e-05, "MEAN_MOTION_DOT": 1.9e-07, "MEAN_MOTION_DDOT": 0}, "tle": {"line1": "1 59051U 24039A   25350.99610477  .00000019  00000+0  28314-4 0  9997", "line2": "2 59051  98.6771 307.8383 0006808 346.2272  13.8719 14.22402002 93367"}}, "geometry": {"type": "Point", "coordinates": [-51.66416307890514, -1.8996307607862692]}}, {"type": "Feature", "properties": {"norad_id": 60133, "name": "GOES 19", "group": "weather", "lat": -0.00989064317965418, "lon": 85.33119227568659, "alt_km": 35788.52645114471, "timestamp": "2025-12-17T04:57:44.048160+00:00", "meta": {"OBJECT_NAME": "GOES 19", "OBJECT_ID": "2024-119A", "EPOCH": "2025-12-16T14:42:29.575584", "MEAN_MOTION": 1.00272183, "ECCENTRICITY": 0.00010513, "INCLINATION": 0.0145, "RA_OF_ASC_NODE": 178.3561, "ARG_OF_PERICENTER": 142.7664, "MEAN_ANOMALY": 269.8144, "EPHEMERIS_TYPE": 0, "CLASSIFICATION_TYPE": "U", "NORAD_CAT_ID": 60133, "ELEMENT_SET_NO": 999, "REV_AT_EPOCH": 513, "BSTAR": 0, "MEAN_MOTION_DOT": -2.25e-06, "MEAN_MOTION_DDOT": 0}, "tle": {"line1": "1 60133U 24119A   25350.61284231 -.00000225  00000+0  00000+0 0  9990", "line2": "2 60133   0.0145 178.3561 0001051 142.7664 269.8144  1.00272183  5130"}}, "geometry": {"type": "Point", "coordinates": [85.33119227568659, -0.00989064317965418]}}, {"type": "Feature", "properties": {"norad_id": 65815, "name": "FENGYUN 3H", "group": "weather", "lat": -16.90899798457563, "lon": 108.0450585326517, "alt_km": 830.5667074896455, "timestamp": "2025-12-17T04:57:44.048170+00:00", "meta": {"OBJECT_NAME": "FENGYUN 3H", "OBJECT_ID": "2025-219A", "EPOCH": "2025-12-16T22:57:49.677408", "MEAN_MOTION": 14.19905913, "ECCENTRICITY": 6.727e-05, "INCLINATION": 98.6589, "RA_OF_ASC_NODE": 290.4557, "ARG_OF_PERICENTER": 100.3764, "MEAN_ANOMALY": 259.7489, "EPHEMERIS_TYPE": 0, "CLASSIFICATION_TYPE": "U", "NORAD_CAT_ID": 65815, "ELEMENT_SET_NO": 999, "REV_AT_EPOCH": 1152, "BSTAR": 4.9895383e-05, "MEAN_MOTION_DOT": 6.3e-07, "MEAN_MOTION_DDOT": 0}, "tle": {"line1": "1 65815U 25219A   25350.95682497  .00000063  00000+0  49895-4 0  9996", "line2": "2 65815  98.6589 290.4557 0000672 100.3764 259.7489 14.19905913 11525"}}, "geometry": {"type": "Point", "coordinates": [108.0450585326517, -16.90899798457563]}}]}